[{"OBJECT_NAME":"STARLINK-5952","OBJECT_ID":"2023-083AZ","EPOCH":"2026-03-09T22:00:01.999584","MEAN_MOTION":15.07901533,"ECCENTRICITY":0.00011359,"INCLINATION":43.0007,"RA_OF_ASC_NODE":67.354,"ARG_OF_PERICENTER":303.977,"MEAN_ANOMALY":166.0344,"EPHEMERIS_TYPE":0,"CLASSIFICATION_TYPE":"U","NORAD_CAT_ID":56923,"ELEMENT_SET_NO":999,"REV_AT_EPOCH":578,"BSTAR":0.0043978812,"MEAN_MOTION_DOT":0.0006909,"MEAN_MOTION_DDOT":0},{"OBJECT_NAME":"CZ-4B DEB","OBJECT_ID":"2006-015E","EPOCH":"2026-03-09T20:34:53.082912","MEAN_MOTION":15.19885806,"ECCENTRICITY":0.00461993,"INCLINATION":98.0565,"RA_OF_ASC_NODE":201.7753,"ARG_OF_PERICENTER":62.4887,"MEAN_ANOMALY":298.1031,"EPHEMERIS_TYPE":0,"CLASSIFICATION_TYPE":"U","NORAD_CAT_ID":29538,"ELEMENT_SET_NO":999,"REV_AT_EPOCH":5389,"BSTAR":0.0022587151,"MEAN_MOTION_DOT":0.00050103,"MEAN_MOTION_DDOT":0}]
